{
  "type": "FeatureCollection",
  "features": [
    {
      "type": "Feature",
      "properties": {
        "norad_id": 41330,
        "name": "COSMOS 2514 (751)",
        "group": "gnss",
        "lat": 29.155010627819905,
        "lon": 124.18906218579552,
        "alt_km": 19117.522952196457,
        "timestamp": "2025-12-18T19:29:52.787542+00:00",
        "meta_object_name": "COSMOS 2514 (751)",
        "meta_object_id": "2016-008A",
        "meta_epoch": "2025-12-18T03:36:56.432160",
        "meta_mean_motion": 2.13102729,
        "meta_eccentricity": 0.00118677,
        "meta_inclination": 65.1307,
        "meta_ra_of_asc_node": 319.2187,
        "meta_arg_of_pericenter": 220.1526,
        "meta_mean_anomaly": 139.7512,
        "meta_ephemeris_type": 0,
        "meta_classification_type": "U",
        "meta_norad_cat_id": 41330,
        "meta_element_set_no": 999,
        "meta_rev_at_epoch": 7676,
        "meta_bstar": 0,
        "meta_mean_motion_dot": -6.5e-07,
        "meta_mean_motion_ddot": 0,
        "tle_line1": "1 41330U 16008A   25352.15065315 -.00000065  00000+0  00000+0 0  9999",
        "tle_line2": "2 41330  65.1307 319.2187 0011867 220.1526 139.7512  2.13102729 76768"
      },
      "geometry": {
        "type": "Point",
        "coordinates": [
          124.18906218579552,
          29.155010627819905
        ]
      }
    },
    {
      "type": "Feature",
      "properties": {
        "norad_id": 41384,
        "name": "IRNSS-1F",
        "group": "gnss",
        "lat": -3.6357184622126053,
        "lon": 52.847390256089696,
        "alt_km": 35847.4684432338,
        "timestamp": "2025-12-18T19:29:52.787554+00:00",
        "meta_object_name": "IRNSS-1F",
        "meta_object_id": "2016-015A",
        "meta_epoch": "2025-12-18T01:27:48.311712",
        "meta_mean_motion": 1.00275273,
        "meta_eccentricity": 0.00226265,
        "meta_inclination": 4.8943,
        "meta_ra_of_asc_node": 101.1662,
        "meta_arg_of_pericenter": 181.3304,
        "meta_mean_anomaly": 218.7827,
        "meta_ephemeris_type": 0,
        "meta_classification_type": "U",
        "meta_norad_cat_id": 41384,
        "meta_element_set_no": 999,
        "meta_rev_at_epoch": 3585,
        "meta_bstar": 0,
        "meta_mean_motion_dot": 1.8e-06,
        "meta_mean_motion_ddot": 0,
        "tle_line1": "1 41384U 16015A   25352.06097583  .00000180  00000+0  00000+0 0  9995",
        "tle_line2": "2 41384   4.8943 101.1662 0022626 181.3304 218.7827  1.00275273 35858"
      },
      "geometry": {
        "type": "Point",
        "coordinates": [
          52.847390256089696,
          -3.6357184622126053
        ]
      }
    },
    {
      "type": "Feature",
      "properties": {
        "norad_id": 41434,
        "name": "BEIDOU-2 IGSO-6 (C13)",
        "group": "gnss",
        "lat": 56.0126993520135,
        "lon": 98.84447622706445,
        "alt_km": 36011.5154591351,
        "timestamp": "2025-12-18T19:29:52.787569+00:00",
        "meta_object_name": "BEIDOU-2 IGSO-6 (C13)",
        "meta_object_id": "2016-021A",
        "meta_epoch": "2025-12-11T15:29:12.615360",
        "meta_mean_motion": 1.00293077,
        "meta_eccentricity": 0.00608616,
        "meta_inclination": 59.9644,
        "meta_ra_of_asc_node": 39.9082,
        "meta_arg_of_pericenter": 229.9753,
        "meta_mean_anomaly": 135.9177,
        "meta_ephemeris_type": 0,
        "meta_classification_type": "U",
        "meta_norad_cat_id": 41434,
        "meta_element_set_no": 999,
        "meta_rev_at_epoch": 3560,
        "meta_bstar": 0,
        "meta_mean_motion_dot": -1.62e-06,
        "meta_mean_motion_ddot": 0,
        "tle_line1": "1 41434U 16021A   25345.64528490 -.00000162  00000+0  00000+0 0  9991",
        "tle_line2": "2 41434  59.9644  39.9082 0060861 229.9753 135.9177  1.00293077 35600"
      },
      "geometry": {
        "type": "Point",
        "coordinates": [
          98.84447622706445,
          56.0126993520135
        ]
      }
    },
    {
      "type": "Feature",
      "properties": {
        "norad_id": 41469,
        "name": "IRNSS-1G",
        "group": "gnss",
        "lat": 3.5240377821551636,
        "lon": 149.5415158440203,
        "alt_km": 35781.52103044399,
        "timestamp": "2025-12-18T19:29:52.787582+00:00",
        "meta_object_name": "IRNSS-1G",
        "meta_object_id": "2016-027A",
        "meta_epoch": "2025-12-18T05:21:03.928896",
        "meta_mean_motion": 1.00277519,
        "meta_eccentricity": 0.00025804,
        "meta_inclination": 4.7475,
        "meta_ra_of_asc_node": 101.9561,
        "meta_arg_of_pericenter": 331.2194,
        "meta_mean_anomaly": 223.6421,
        "meta_ephemeris_type": 0,
        "meta_classification_type": "U",
        "meta_norad_cat_id": 41469,
        "meta_element_set_no": 999,
        "meta_rev_at_epoch": 3536,
        "meta_bstar": 0,
        "meta_mean_motion_dot": -3.13e-06,
        "meta_mean_motion_ddot": 0,
        "tle_line1": "1 41469U 16027A   25352.22296214 -.00000313  00000+0  00000+0 0  9991",
        "tle_line2": "2 41469   4.7475 101.9561 0002580 331.2194 223.6421  1.00277519 35363"
      },
      "geometry": {
        "type": "Point",
        "coordinates": [
          149.5415158440203,
          3.5240377821551636
        ]
      }
    },
    {
      "type": "Feature",
      "properties": {
        "norad_id": 41549,
        "name": "GSAT0211 (GALILEO 14)",
        "group": "gnss",
        "lat": 45.10261149474755,
        "lon": -89.00613237988715,
        "alt_km": 23208.030949584227,
        "timestamp": "2025-12-18T19:29:52.787593+00:00",
        "meta_object_name": "GSAT0211 (GALILEO 14)",
        "meta_object_id": "2016-030A",
        "meta_epoch": "2025-12-14T00:32:28.498848",
        "meta_mean_motion": 1.70473201,
        "meta_eccentricity": 0.000407,
        "meta_inclination": 55.1518,
        "meta_ra_of_asc_node": 226.7881,
        "meta_arg_of_pericenter": 16.5595,
        "meta_mean_anomaly": 343.5367,
        "meta_ephemeris_type": 0,
        "meta_classification_type": "U",
        "meta_norad_cat_id": 41549,
        "meta_element_set_no": 999,
        "meta_rev_at_epoch": 5951,
        "meta_bstar": 0,
        "meta_mean_motion_dot": 2.8e-07,
        "meta_mean_motion_ddot": 0,
        "tle_line1": "1 41549U 16030A   25348.02255207  .00000028  00000+0  00000+0 0  9996",
        "tle_line2": "2 41549  55.1518 226.7881 0004070  16.5595 343.5367  1.70473201 59512"
      },
      "geometry": {
        "type": "Point",
        "coordinates": [
          -89.00613237988715,
          45.10261149474755
        ]
      }
    },
    {
      "type": "Feature",
      "properties": {
        "norad_id": 41550,
        "name": "GSAT0210 (GALILEO 13)",
        "group": "gnss",
        "lat": -54.29473708379664,
        "lon": 122.30418674848643,
        "alt_km": 23225.625066224748,
        "timestamp": "2025-12-18T19:29:52.787604+00:00",
        "meta_object_name": "GSAT0210 (GALILEO 13)",
        "meta_object_id": "2016-030B",
        "meta_epoch": "2025-12-17T05:06:34.590240",
        "meta_mean_motion": 1.70473746,
        "meta_eccentricity": 9.221e-05,
        "meta_inclination": 55.1502,
        "meta_ra_of_asc_node": 226.6984,
        "meta_arg_of_pericenter": 234.8094,
        "meta_mean_anomaly": 125.2822,
        "meta_ephemeris_type": 0,
        "meta_classification_type": "U",
        "meta_norad_cat_id": 41550,
        "meta_element_set_no": 999,
        "meta_rev_at_epoch": 5956,
        "meta_bstar": 0,
        "meta_mean_motion_dot": 5.5e-07,
        "meta_mean_motion_ddot": 0,
        "tle_line1": "1 41550U 16030B   25351.21290035  .00000055  00000+0  00000+0 0  9991",
        "tle_line2": "2 41550  55.1502 226.6984 0000922 234.8094 125.2822  1.70473746 59561"
      },
      "geometry": {
        "type": "Point",
        "coordinates": [
          122.30418674848643,
          -54.29473708379664
        ]
      }
    },
    {
      "type": "Feature",
      "properties": {
        "norad_id": 41586,
        "name": "BEIDOU-2 G7 (C03)",
        "group": "gnss",
        "lat": 1.5932071202687688,
        "lon": 130.6230003819132,
        "alt_km": 35774.6965366273,
        "timestamp": "2025-12-18T19:29:52.787616+00:00",
        "meta_object_name": "BEIDOU-2 G7 (C03)",
        "meta_object_id": "2016-037A",
        "meta_epoch": "2025-12-18T01:50:09.134304",
        "meta_mean_motion": 1.00272738,
        "meta_eccentricity": 0.0005106,
        "meta_inclination": 1.7698,
        "meta_ra_of_asc_node": 67.8228,
        "meta_arg_of_pericenter": 3.2684,
        "meta_mean_anomaly": 153.8419,
        "meta_ephemeris_type": 0,
        "meta_classification_type": "U",
        "meta_norad_cat_id": 41586,
        "meta_element_set_no": 999,
        "meta_rev_at_epoch": 507,
        "meta_bstar": 0,
        "meta_mean_motion_dot": -3.3e-06,
        "meta_mean_motion_ddot": 0,
        "tle_line1": "1 41586U 16037A   25352.07649461 -.00000330  00000+0  00000+0 0  9990",
        "tle_line2": "2 41586   1.7698  67.8228 0005106   3.2684 153.8419  1.00272738  5078"
      },
      "geometry": {
        "type": "Point",
        "coordinates": [
          130.6230003819132,
          1.5932071202687688
        ]
      }
    }
  ]
}